MEAN_MOTION;ECCENTRICITY;INCLINATION;RA_OF_ASC_NODE;ARG_OF_PERICENTER;MEAN_ANOMALY;BSTAR;MEAN_MOTION_DOT;MEAN_MOTION_DDOT;TYPE
13.99255735;0.0007209;98.9828;31.7055;17.6963;34.9593;-9.23E-5;-1.78E-6;0;Amateur
13.99255534;0.0007156;98.9828;32.3475;15.847;92.8944;-0.00010433;-1.95E-6;0;Amateur
13.99255428;0.0007124;98.9829;32.7535;14.656;18.7706;-0.00010872;-2.01E-6;0;Amateur
13.99255236;0.0007078;98.9829;33.3295;12.9958;97.3442;-0.00011722;-2.14E-6;0;Amateur
13.99255101;0.0007023;98.983;33.735;11.8314;20.9691;-0.00012194;-2.21E-6;0;Amateur
13.9925489;0.0006978;98.9831;34.3108;10.1929;98.6907;-0.00012947;-2.32E-6;0;Amateur
13.99254763;0.000695;98.9831;34.644;9.2176;10.4234;-0.0001328;-2.36E-6;0;Amateur
13.99254476;0.0006901;98.9832;35.3533;7.1803;53.3304;-0.00014027;-2.47E-6;0;Amateur
13.99254476;0.0006901;98.9832;35.3533;7.1803;53.3304;-0.00014027;-2.47E-6;0;Amateur
13.99253959;0.0006802;98.9833;36.6077;3.477;16.8586;-0.00014823;-2.59E-6;0;Amateur
13.99253525;0.0006728;98.9834;37.5958;0.5461;52.2986;-0.00015145;-2.63E-6;0;Amateur
13.99253038;0.0006653;98.9835;38.5775;357.6886;55.0839;-0.00015577;-2.7E-6;0;Amateur
13.99252572;0.0006576;98.9836;39.5593;354.7702;58.2506;-0.00015564;-2.7E-6;0;Amateur
13.99252103;0.0006502;98.9837;40.5411;351.8551;61.0269;-0.00015417;-2.67E-6;0;Amateur
13.99251654;0.0006435;98.9837;41.5229;348.8478;64.0895;-0.00015158;-2.64E-6;0;Amateur
13.99251616;0.0006433;98.9837;41.5923;348.6053;60.5748;-0.0001522;-2.65E-6;0;Amateur
13.992512;0.000637;98.9837;42.5047;345.8869;67.2994;-0.00014999;-2.61E-6;0;Amateur
13.99250899;0.0006328;98.9838;43.1467;343.9947;124.8045;-0.00014993;-2.61E-6;0;Amateur
13.99250743;0.0006316;98.9837;43.4864;342.923;69.4756;-0.0001505;-2.62E-6;0;Amateur
13.99250443;0.0006271;98.9838;44.1288;341.0243;129.5354;-0.00015091;-2.63E-6;0;Amateur
13.99250305;0.0006241;98.9838;44.4697;340.0142;80.4744;-0.00014861;-2.59E-6;0;Amateur
13.99250017;0.0006199;98.9838;45.1102;338.1894;130.1999;-0.0001491;-2.6E-6;0;Amateur
13.99249871;0.0006176;98.9838;45.4501;337.1571;76.0654;-0.00014853;-2.59E-6;0;Amateur
13.99249582;0.0006136;98.9839;46.092;335.2723;133.2669;-0.00014896;-2.6E-6;0;Amateur
13.99249415;0.0006108;98.9839;46.5003;334.0089;70.3705;-0.00014771;-2.58E-6;0;Amateur
13.99249167;0.0006072;98.9839;47.0739;332.3603;136.6287;-0.00014716;-2.57E-6;0;Amateur
13.9924901;0.0006043;98.984;47.4821;331.1272;73.1946;-0.00014497;-2.54E-6;0;Amateur
13.99248772;0.0006006;98.984;48.0557;329.4847;139.3933;-0.00014352;-2.52E-6;0;Amateur
13.99248608;0.0005981;98.9841;48.4624;328.268;68.0905;-0.00014201;-2.5E-6;0;Amateur
13.99248383;0.0005945;98.9841;49.0375;326.6283;141.9209;-0.00013929;-2.46E-6;0;Amateur
13.9924825;0.0005924;98.9842;49.3774;325.6065;87.5379;-0.00013788;-2.44E-6;0;Amateur
13.99247988;0.0005886;98.9843;50.0194;323.7529;145.2694;-0.00013534;-2.4E-6;0;Amateur
13.99247625;0.0005827;98.9844;51.0016;320.88;149.7987;-0.00012805;-2.29E-6;0;Amateur
13.99247504;0.0005804;98.9844;51.3411;319.8865;93.5664;-0.00012502;-2.25E-6;0;Amateur
13.992473;0.0005759;98.9845;51.9832;318.0843;151.4131;-0.00011732;-2.14E-6;0;Amateur
13.99247188;0.0005739;98.9845;52.3229;317.0858;96.2364;-0.000114;-2.09E-6;0;Amateur
13.99246979;0.0005695;98.9846;52.9651;315.2766;154.5361;-0.00010708;-1.99E-6;0;Amateur
13.99246879;0.0005678;98.9846;53.3715;314.0218;82.0356;-0.00010018;-1.89E-6;0;Amateur
13.99246652;0.0005625;98.9847;54.2866;311.4172;101.861;-8.5671E-5;-1.68E-6;0;Amateur
13.99246627;0.000562;98.9847;54.3534;311.2235;84.7393;-8.5535E-5;-1.68E-6;0;Amateur
13.99246419;0.0005567;98.9848;55.2685;308.6164;104.7732;-7.1201E-5;-1.47E-6;0;Amateur
13.9924622;0.0005505;98.9848;56.2504;305.8179;107.4335;-5.5864E-5;-1.25E-6;0;Amateur
13.99246052;0.0005451;98.9849;57.2324;302.9174;110.5693;-4.1133E-5;-1.03E-6;0;Amateur
13.99245947;0.0005394;98.985;58.2142;300.0345;113.1634;-2.4663E-5;-7.9E-7;0;Amateur
13.99245915;0.0005339;98.9851;59.1972;297.1719;120.8973;-5.8746E-6;-5.2E-7;0;Amateur
13.99245894;0.0005278;98.9852;60.1791;294.2878;123.9181;8.6383E-6;-3.1E-7;0;Amateur
13.99245928;0.0005238;98.9854;61.1611;291.451;126.6727;2.4876E-5;-8.0E-8;0;Amateur
13.99245991;0.0005208;98.9856;62.1431;288.6563;129.0231;3.9509E-5;1.4E-7;0;Amateur
13.99246113;0.0005161;98.9858;63.1251;285.8157;131.9605;5.5912E-5;3.7E-7;0;Amateur
13.99246304;0.0005113;98.986;64.0994;282.8982;95.3725;7.5222E-5;6.6E-7;0;Amateur
13.99246539;0.0005077;98.9862;65.0189;280.1935;136.3879;9.5524E-5;9.5E-7;0;Amateur
13.99246766;0.0005047;98.9863;65.7311;278.0907;193.3725;0.00011261;1.2E-6;0;Amateur
13.99246894;0.0005037;98.9864;66.072;277.0354;144.0545;0.00012104;1.32E-6;0;Amateur
13.99247118;0.0005016;98.9866;66.7132;275.1207;196.5457;0.00013536;1.53E-6;0;Amateur
13.99247265;0.0005006;98.9866;67.0538;274.0862;145.1603;0.00014358;1.65E-6;0;Amateur
13.99247716;0.0004962;98.9868;68.0275;270.9793;105.2253;0.0001675;1.99E-6;0;Amateur
13.9924826;0.0004935;98.987;69.0181;267.9272;151.6172;0.00019211;2.35E-6;0;Amateur
13.99248641;0.0004913;98.9872;69.6603;265.8736;208.7595;0.00020725;2.57E-6;0;Amateur
13.99248874;0.0004912;98.9873;70.0002;264.774;154.2497;0.00021578;2.7E-6;0;Amateur
13.99249257;0.0004894;98.9874;70.5715;262.9101;207.1693;0.00022753;2.87E-6;0;Amateur
13.99249877;0.0004874;98.9876;71.4837;259.9242;210.6843;0.0002414;3.07E-6;0;Amateur
13.99249973;0.0004876;98.9876;71.6254;259.6824;218.3143;0.000244;3.11E-6;0;Amateur
13.99250238;0.0004875;98.9876;71.9648;259.0174;160.5017;0.00024926;3.18E-6;0;Amateur
13.99250656;0.0004867;98.9877;72.5355;257.1827;210.8649;0.00025535;3.27E-6;0;Amateur
13.99250969;0.0004863;98.9878;72.9474;255.5243;165.696;0.00025976;3.33E-6;0;Amateur
13.99251435;0.0004862;98.988;73.5891;253.3524;220.7095;0.00026262;3.38E-6;0;Amateur
13.99251703;0.0004867;98.9881;73.9297;252.2754;169.1337;0.00026402;3.4E-6;0;Amateur
13.99252466;0.000487;98.9883;74.9125;249.149;174.4114;0.00026612;3.43E-6;0;Amateur
13.99253199;0.0004874;98.9886;75.895;245.9611;178.3099;0.0002617;3.36E-6;0;Amateur
13.99253914;0.0004889;98.9889;76.8773;242.8327;180.7382;0.00025413;3.25E-6;0;Amateur
13.99254622;0.0004906;98.9892;77.8597;239.6875;183.4423;0.00024459;3.11E-6;0;Amateur
13.9925506;0.0004918;98.9894;78.5013;237.6347;237.0037;0.00023689;3.0E-6;0;Amateur
13.99255301;0.0004926;98.9895;78.8421;236.5342;186.3181;0.00023315;2.95E-6;0;Amateur
13.99255681;0.0004939;98.9897;79.4135;234.6923;239.115;0.00022565;2.84E-6;0;Amateur
13.99255948;0.0004951;98.9898;79.8251;233.3798;191.8341;0.00022035;2.76E-6;0;Amateur
13.99256286;0.000497;98.99;80.3949;231.5709;236.5266;0.00021032;2.62E-6;0;Amateur
13.99256552;0.000499;98.9901;80.8078;230.3606;195.7481;0.00020551;2.55E-6;0;Amateur
13.9925711;0.0005029;98.9903;81.7904;227.3791;198.7163;0.00018944;2.31E-6;0;Amateur
13.9925759;0.0005077;98.9906;82.7732;224.3832;202.3922;0.00016972;2.03E-6;0;Amateur
13.99258021;0.0005122;98.9907;83.7559;221.4386;205.7386;0.00014977;1.74E-6;0;Amateur
13.99258405;0.0005179;98.9909;84.8038;218.3491;183.1906;0.00012607;1.39E-6;0;Amateur
13.99258571;0.0005207;98.991;85.3083;216.8882;251.9016;0.00011427;1.22E-6;0;Amateur
13.99258719;0.0005236;98.9911;85.7865;215.5;186.0555;0.00010365;1.07E-6;0;Amateur
13.99258967;0.0005296;98.9912;86.7042;212.8132;215.2837;8.212E-5;7.6E-7;0;Amateur
13.99258979;0.0005299;98.9912;86.7692;212.6213;188.8574;8.0443E-5;7.3E-7;0;Amateur
13.99259107;0.0005332;98.9913;87.2738;211.1144;258.3334;6.9872E-5;5.8E-7;0;Amateur
13.99259186;0.0005359;98.9913;87.6867;209.9368;217.4112;5.9738E-5;4.3E-7;0;Amateur
13.99259187;0.0005363;98.9913;87.7519;209.7599;191.7172;5.7265E-5;3.9E-7;0;Amateur
13.99259267;0.0005396;98.9914;88.2565;208.2945;261.2959;4.4579E-5;2.1E-7;0;Amateur
13.99259343;0.0005425;98.9915;88.6694;207.1812;220.0307;3.6087E-5;9.0E-8;0;Amateur
13.99259343;0.0005428;98.9915;88.7346;207.0021;194.4711;3.3828E-5;5.0E-8;0;Amateur
13.99259414;0.0005495;98.9916;89.6524;204.4006;223.9136;1.0109E-5;-2.9E-7;0;Amateur
13.99259418;0.0005501;98.9916;89.7175;204.2372;197.813;8.7399E-6;-3.1E-7;0;Amateur
13.99259427;0.0005571;98.9917;90.6281;201.7332;190.5978;-1.4635E-5;-6.5E-7;0;Amateur
13.99259416;0.0005618;98.9917;91.205;200.0453;270.6615;-2.7674E-5;-8.4E-7;0;Amateur
13.99259325;0.0005691;98.9919;92.1872;197.3962;270.3471;-5.0134E-5;-1.16E-6;0;Amateur
13.99259275;0.0005725;98.9919;92.6009;196.345;233.2982;-5.8398E-5;-1.28E-6;0;Amateur
13.99259188;0.0005774;98.9919;93.1706;194.7855;276.3539;-6.8986E-5;-1.44E-6;0;Amateur
13.99259111;0.0005807;98.9919;93.5838;193.756;236.4431;-7.6618E-5;-1.55E-6;0;Amateur
13.99258896;0.0005882;98.992;94.5667;191.2128;239.7015;-9.1639E-5;-1.77E-6;0;Amateur
13.99258661;0.000597;98.992;95.5495;188.5781;242.1766;-0.00010179;-1.91E-6;0;Amateur
13.99258661;0.000597;98.992;95.5495;188.5781;242.1766;-0.00010179;-1.91E-6;0;Amateur
13.99258475;0.0006013;98.9921;96.119;187.1456;283.9871;-0.00010916;-2.02E-6;0;Amateur
13.99258343;0.0006048;98.9921;96.5323;186.0471;244.5809;-0.00011336;-2.08E-6;0;Amateur
13.99258343;0.0006048;98.9921;96.5323;186.0471;244.5809;-0.00011336;-2.08E-6;0;Amateur
13.99258015;0.0006126;98.9921;97.5077;183.5384;208.9905;-0.00012069;-2.19E-6;0;Amateur
13.99257811;0.0006166;98.9922;98.0847;182.0547;289.0232;-0.00012428;-2.24E-6;0;Amateur
13.99257647;0.0006201;98.9921;98.4906;180.9935;211.4296;-0.00012858;-2.3E-6;0;Amateur
13.9925741;0.0006242;98.9922;99.0673;179.5414;290.4231;-0.00013323;-2.37E-6;0;Amateur
13.99257234;0.0006277;98.9921;99.4734;178.4472;213.9078;-0.00013683;-2.42E-6;0;Amateur
13.99256977;0.0006324;98.9921;100.0555;176.9298;320.4337;-0.0001421;-2.5E-6;0;Amateur
13.99256817;0.0006354;98.9921;100.4598;175.9237;234.6838;-0.00014285;-2.51E-6;0;Amateur
13.99256406;0.0006426;98.9921;101.3729;173.6118;239.4113;-0.00014859;-2.59E-6;0;Amateur
13.9925638;0.0006431;98.9921;101.439;173.4448;218.756;-0.00014874;-2.6E-6;0;Amateur
13.99255958;0.0006501;98.9921;102.3557;171.0823;241.938;-0.00015425;-2.68E-6;0;Amateur
13.99255926;0.000651;98.9921;102.4254;170.9079;239.5278;-0.00015479;-2.68E-6;0;Amateur
